[{"OBJECT_NAME":"IRIDIUM 130","OBJECT_ID":"2017-083D","EPOCH":"2026-03-09T21:39:51.158880","MEAN_MOTION":14.3421742,"ECCENTRICITY":0.00018247,"INCLINATION":86.4028,"RA_OF_ASC_NODE":3.7574,"ARG_OF_PERICENTER":90.7485,"MEAN_ANOMALY":269.392,"EPHEMERIS_TYPE":0,"CLASSIFICATION_TYPE":"U","NORAD_CAT_ID":43073,"ELEMENT_SET_NO":999,"REV_AT_EPOCH":42988,"BSTAR":-6.674968e-6,"MEAN_MOTION_DOT":1.0e-8,"MEAN_MOTION_DDOT":0},{"OBJECT_NAME":"COSMOS 2251 DEB","OBJECT_ID":"1993-036ALD","EPOCH":"2026-02-28T05:50:07.481760","MEAN_MOTION":14.37611865,"ECCENTRICITY":0.0017967,"INCLINATION":73.8706,"RA_OF_ASC_NODE":43.2127,"ARG_OF_PERICENTER":326.5251,"MEAN_ANOMALY":33.4765,"EPHEMERIS_TYPE":0,"CLASSIFICATION_TYPE":"U","NORAD_CAT_ID":35459,"ELEMENT_SET_NO":999,"REV_AT_EPOCH":59475,"BSTAR":0.00028955,"MEAN_MOTION_DOT":8.43e-6,"MEAN_MOTION_DDOT":0}]
